[{"OBJECT_NAME":"STARLINK-1654","OBJECT_ID":"2020-062B","EPOCH":"2026-03-09T23:24:23.698656","MEAN_MOTION":15.68868536,"ECCENTRICITY":0.00033751,"INCLINATION":53.0444,"RA_OF_ASC_NODE":332.2394,"ARG_OF_PERICENTER":329.1833,"MEAN_ANOMALY":30.8985,"EPHEMERIS_TYPE":0,"CLASSIFICATION_TYPE":"U","NORAD_CAT_ID":46326,"ELEMENT_SET_NO":999,"REV_AT_EPOCH":30496,"BSTAR":0.00096287579,"MEAN_MOTION_DOT":0.00113674,"MEAN_MOTION_DDOT":0},{"OBJECT_NAME":"BANE","OBJECT_ID":"2023-185D","EPOCH":"2026-03-09T22:38:54.916224","MEAN_MOTION":15.6846319,"ECCENTRICITY":0.00050193,"INCLINATION":97.3445,"RA_OF_ASC_NODE":151.472,"ARG_OF_PERICENTER":176.385,"MEAN_ANOMALY":183.7448,"EPHEMERIS_TYPE":0,"CLASSIFICATION_TYPE":"U","NORAD_CAT_ID":58465,"ELEMENT_SET_NO":999,"REV_AT_EPOCH":12713,"BSTAR":0.00097597303,"MEAN_MOTION_DOT":0.00111172,"MEAN_MOTION_DDOT":0}]
